$$SOE
2461295.500000000, A.D. 2026-Sep-12 00:00:00.0000, -3.137345769978459E+08, 2.751188109486158E+08, -3.711818676191285E+07,
2461302.500000000, A.D. 2026-Sep-19 00:00:00.0000, -3.188992196782153E+08, 2.657053137809661E+08, -3.658463317875785E+07,
2461309.500000000, A.D. 2026-Sep-26 00:00:00.0000, -3.238500107910862E+08, 2.561137717917938E+08, -3.602650050957919E+07,
2461316.500000000, A.D. 2026-Oct-03 00:00:00.0000, -3.285800802591323E+08, 2.463478100584725E+08, -3.544377035481943E+07,
2461323.500000000, A.D. 2026-Oct-10 00:00:00.0000, -3.330825050329187E+08, 2.364113113360803E+08, -3.483644310792556E+07,
2461330.500000000, A.D. 2026-Oct-17 00:00:00.0000, -3.373503161690966E+08, 2.263084271723844E+08, -3.420453917579082E+07,
2461337.500000000, A.D. 2026-Oct-24 00:00:00.0000, -3.413765067706314E+08, 2.160435890988435E+08, -3.354810026083063E+07,
2461344.500000000, A.D. 2026-Oct-31 00:00:00.0000, -3.451540407482439E+08, 2.056215197908687E+08, -3.286719071846054E+07,
2461351.500000000, A.D. 2026-Nov-07 00:00:00.0000, -3.486758621228543E+08, 1.950472442245768E+08, -3.216189901368640E+07,
2461358.500000000, A.D. 2026-Nov-14 00:00:00.0000, -3.519349047275520E+08, 1.843261016629333E+08, -3.143233922071803E+07,
2461365.500000000, A.D. 2026-Nov-21 00:00:00.0000, -3.549241041816567E+08, 1.734637590906356E+08, -3.067865234132616E+07,
2461372.500000000, A.D. 2026-Nov-28 00:00:00.0000, -3.576364131969007E+08, 1.624662230208126E+08, -2.990100759365734E+07,
2461379.500000000, A.D. 2026-Dec-05 00:00:00.0000, -3.600648166529214E+08, 1.513398489402857E+08, -2.909960405294010E+07,
2461386.500000000, A.D. 2026-Dec-12 00:00:00.0000, -3.622023463290058E+08, 1.400913514134249E+08, -2.827467239890938E+07,
2461393.500000000, A.D. 2026-Dec-19 00:00:00.0000, -3.640420972334240E+08, 1.287278147495231E+08, -2.742647659058959E+07,
2461400.500000000, A.D. 2026-Dec-26 00:00:00.0000, -3.655772457242337E+08, 1.172567032574793E+08, -2.655531552028780E+07,
2461407.500000000, A.D. 2027-Jan-02 00:00:00.0000, -3.668010691892089E+08, 1.056858707788047E+08, -2.566152468002832E+07,
2461414.500000000, A.D. 2027-Jan-09 00:00:00.0000, -3.677069672028835E+08, 9.402356938964693E+07, -2.474547784020879E+07,
2461421.500000000, A.D. 2027-Jan-16 00:00:00.0000, -3.682884841501674E+08, 8.227845714009045E+07, -2.380758873203878E+07,
2461428.500000000, A.D. 2027-Jan-23 00:00:00.0000, -3.685393332826061E+08, 7.045960463869852E+07, -2.284831272833908E+07,
2461435.500000000, A.D. 2027-Jan-30 00:00:00.0000, -3.684534220177699E+08, 5.857650026891737E+07, -2.186814852916946E+07,
2461442.500000000, A.D. 2027-Feb-06 00:00:00.0000, -3.680248780421793E+08, 4.663905419881563E+07, -2.086763984771677E+07,
2461449.500000000, A.D. 2027-Feb-13 00:00:00.0000, -3.672480766505055E+08, 3.465760221508282E+07, -1.984737693839426E+07,
2461456.500000000, A.D. 2027-Feb-20 00:00:00.0000, -3.661176716435213E+08, 2.264290839522963E+07, -1.880799779860715E+07,
2461463.500000000, A.D. 2027-Feb-27 00:00:00.0000, -3.646286283295600E+08, 1.060616320768626E+07, -1.775018941749631E+07,
2461470.500000000, A.D. 2027-Mar-06 00:00:00.0000, -3.627762555226877E+08, -1.441021233980342E+06, -1.667468917105828E+07,
2461477.500000000, A.D. 2027-Mar-13 00:00:00.0000, -3.605562380147271E+08, -1.348661691422082E+07, -1.558228602607961E+07,
2461484.500000000, A.D. 2027-Mar-20 00:00:00.0000, -3.579646705007998E+08, -2.551818769552890E+07, -1.447382149345499E+07,
2461491.500000000, A.D. 2027-Mar-27 00:00:00.0000, -3.549980925804844E+08, -3.752289988456777E+07, -1.335019036976152E+07,
2461498.500000000, A.D. 2027-Apr-03 00:00:00.0000, -3.516535244233383E+08, -4.948753582354777E+07, -1.221234126387518E+07,
2461505.500000000, A.D. 2027-Apr-10 00:00:00.0000, -3.479285027953321E+08, -6.139851066491640E+07, -1.106127688589006E+07,
2461512.500000000, A.D. 2027-Apr-17 00:00:00.0000, -3.438211171503218E+08, -7.324189251064071E+07, -9.898054075205915E+06,
2461519.500000000, A.D. 2027-Apr-24 00:00:00.0000, -3.393300454040033E+08, -8.500342612498987E+07, -8.723783554497331E+06,
2461526.500000000, A.D. 2027-May-01 00:00:00.0000, -3.344545887588678E+08, -9.666856031271680E+07, -7.539629410130814E+06,
2461533.500000000, A.D. 2027-May-08 00:00:00.0000, -3.291947049126491E+08, -1.082224783002963E+08, -6.346808242653757E+06,
2461540.500000000, A.D. 2027-May-15 00:00:00.0000, -3.235510407594637E+08, -1.196501302140397E+08, -5.146587750458479E+06,
2461547.500000000, A.D. 2027-May-22 00:00:00.0000, -3.175249657372308E+08, -1.309362702518209E+08, -3.940284795910820E+06,
2461554.500000000, A.D. 2027-May-29 00:00:00.0000, -3.111186020399818E+08, -1.420654999738632E+08, -2.729263365711652E+06,
2461561.500000000, A.D. 2027-Jun-05 00:00:00.0000, -3.043348503705228E+08, -1.530223144817013E+08, -1.514932237619601E+06,
2461568.500000000, A.D. 2027-Jun-12 00:00:00.0000, -2.971774127894236E+08, -1.637911508958970E+08, -2.987421249580011E+05,
2461575.500000000, A.D. 2027-Jun-19 00:00:00.0000, -2.896508125396785E+08, -1.743564398531817E+08, 9.178176586045623E+05,
2461582.500000000, A.D. 2027-Jun-26 00:00:00.0000, -2.817604101300854E+08, -1.847026600113535E+08, 2.133222964355610E+06,
2461589.500000000, A.D. 2027-Jul-03 00:00:00.0000, -2.735124151308999E+08, -1.948143952172775E+08, 3.345918983934730E+06,
2461596.500000000, A.D. 2027-Jul-10 00:00:00.0000, -2.649138932599096E+08, -2.046763939289909E+08, 4.554324817566842E+06,
2461603.500000000, A.D. 2027-Jul-17 00:00:00.0000, -2.559727683757581E+08, -2.142736304704480E+08, 5.756838407379732E+06,
2461610.500000000, A.D. 2027-Jul-24 00:00:00.0000, -2.466978189244000E+08, -2.235913676663741E+08, 6.951841788103461E+06,
2461617.500000000, A.D. 2027-Jul-31 00:00:00.0000, -2.370986681888938E+08, -2.326152200570899E+08, 8.137706601533309E+06,
2461624.500000000, A.D. 2027-Aug-07 00:00:00.0000, -2.271857683725921E+08, -2.413312159346108E+08, 9.312799945463166E+06,
2461631.500000000, A.D. 2027-Aug-14 00:00:00.0000, -2.169703807205150E+08, -2.497258578136400E+08, 1.047549069911386E+07,
2461638.500000000, A.D. 2027-Aug-21 00:00:00.0000, -2.064645510467382E+08, -2.577861840431735E+08, 1.162415593919852E+07,
2461645.500000000, A.D. 2027-Aug-28 00:00:00.0000, -1.956810773128074E+08, -2.654998296904449E+08, 1.275718717162216E+07,
2461652.500000000, A.D. 2027-Sep-04 00:00:00.0000, -1.846334706043283E+08, -2.728550835315008E+08, 1.387299662966858E+07,
2461659.500000000, A.D. 2027-Sep-11 00:00:00.0000, -1.733359111545327E+08, -2.798409411608933E+08, 1.497002364789508E+07,
2461666.500000000, A.D. 2027-Sep-18 00:00:00.0000, -1.618031996204953E+08, -2.864471542521513E+08, 1.604674097978450E+07,
2461673.500000000, A.D. 2027-Sep-25 00:00:00.0000, -1.500507038037153E+08, -2.926642754745852E+08, 1.710166096466216E+07,
2461680.500000000, A.D. 2027-Oct-02 00:00:00.0000, -1.380943012384519E+08, -2.984836985272427E+08, 1.813334147364835E+07,
2461687.500000000, A.D. 2027-Oct-09 00:00:00.0000, -1.259503181946587E+08, -3.038976928513786E+08, 1.914039157007338E+07,
2461694.500000000, A.D. 2027-Oct-16 00:00:00.0000, -1.136354656597461E+08, -3.088994327066106E+08, 2.012147681606297E+07,
2461701.500000000, A.D. 2027-Oct-23 00:00:00.0000, -1.011667727086719E+08, -3.134830203261554E+08, 2.107532414716649E+07,
2461708.500000000, A.D. 2027-Oct-30 00:00:00.0000, -8.856151758220190E+07, -3.176435023377661E+08, 2.200072628125687E+07,
2461715.500000000, A.D. 2027-Nov-06 00:00:00.0000, -7.583715834145598E+07, -3.213768782151719E+08, 2.289654581706005E+07,
2461722.500000000, A.D. 2027-Nov-13 00:00:00.0000, -6.301126578794964E+07, -3.246801028317409E+08, 2.376171899900772E+07,
2461729.500000000, A.D. 2027-Nov-20 00:00:00.0000, -5.010145644284646E+07, -3.275510854011321E+08, 2.459525867811812E+07,
2461736.500000000, A.D. 2027-Nov-27 00:00:00.0000, -3.712532464592197E+07, -3.299886820316138E+08, 2.539625654814354E+07,
2461743.500000000, A.D. 2027-Dec-04 00:00:00.0000, -2.410037644136389E+07, -3.319926812467140E+08, 2.616388491146535E+07,
2461750.500000000, A.D. 2027-Dec-11 00:00:00.0000, -1.104396639343384E+07, -3.335637837694886E+08, 2.689739794798018E+07,
2461757.500000000, A.D. 2027-Dec-18 00:00:00.0000, 2.026762411733234E+06, -3.347035773038163E+08, 2.759613244253640E+07,
2461764.500000000, A.D. 2027-Dec-25 00:00:00.0000, 1.509493486667097E+07, -3.354145067614793E+08, 2.825950797189423E+07,
2461771.500000000, A.D. 2028-Jan-01 00:00:00.0000, 2.814399649623759E+07, -3.356998404095824E+08, 2.888702656998831E+07,
$$EOE